{"type": "FeatureCollection", "features": [ {"type": "Feature", "properties": {"norad_id": 33711, "name": "FENGYUN 1C DEB", "group": "fengyun-1c-debris", "lat": 63.43800071425989, "lon": 36.65433221870678, "alt_km": 848.2079381416206, "timestamp": "2025-12-27T23:26:37.649725+00:00", "meta": {"OBJECT_NAME": "FENGYUN 1C DEB", "OBJECT_ID": "1999-025DGY", "EPOCH": "2025-12-27T02:40:08.697792", "MEAN_MOTION": 14.00940783, "ECCENTRICITY": 0.00953777, "INCLINATION": 99.1802, "RA_OF_ASC_NODE": 54.6572, "ARG_OF_PERICENTER": 8.2882, "MEAN_ANOMALY": 12.5493, "EPHEMERIS_TYPE": 0, "CLASSIFICATION_TYPE": "U", "NORAD_CAT_ID": 33711, "ELEMENT_SET_NO": 999, "REV_AT_EPOCH": 92133, "BSTAR": 0.00060087408, "MEAN_MOTION_DOT": 8.9e-06, "MEAN_MOTION_DDOT": 0}, "tle": {"line1": "1 33711U 99025DGY 25361.11121178  .00000890  00000+0  60087-3 0  9999", "line2": "2 33711  99.1802  54.6572 0095377   8.2882  12.5493 14.00940783921332"}}, "geometry": {"type": "Point", "coordinates": [36.65433221870678, 63.43800071425989]}}, {"type": "Feature", "properties": {"norad_id": 33716, "name": "FENGYUN 1C DEB", "group": "fengyun-1c-debris", "lat": -56.32738020110503, "lon": -58.514571683737245, "alt_km": 724.365916204144, "timestamp": "2025-12-27T23:26:37.649735+00:00", "meta": {"OBJECT_NAME": "FENGYUN 1C DEB", "OBJECT_ID": "1999-025DHD", "EPOCH": "2025-12-25T13:02:33.559008", "MEAN_MOTION": 14.32682924, "ECCENTRICITY": 0.0092901, "INCLINATION": 98.8749, "RA_OF_ASC_NODE": 285.4306, "ARG_OF_PERICENTER": 320.3619, "MEAN_ANOMALY": 39.0797, "EPHEMERIS_TYPE": 0, "CLASSIFICATION_TYPE": "U", "NORAD_CAT_ID": 33716, "ELEMENT_SET_NO": 999, "REV_AT_EPOCH": 65341, "BSTAR": 0.0001958, "MEAN_MOTION_DOT": 5.11e-06, "MEAN_MOTION_DDOT": 0}, "tle": {"line1": "1 33716U 99025DHD 25359.54344397  .00000511  00000+0  19580-3 0  9990", "line2": "2 33716  98.8749 285.4306 0092901 320.3619  39.0797 14.32682924653415"}}, "geometry": {"type": "Point", "coordinates": [-58.514571683737245, -56.32738020110503]}}, {"type": "Feature", "properties": {"norad_id": 33718, "name": "FENGYUN 1C DEB", "group": "fengyun-1c-debris", "lat": 48.38792284193459, "lon": -79.30235590999258, "alt_km": 921.3024702361654, "timestamp": "2025-12-27T23:26:37.649747+00:00", "meta": {"OBJECT_NAME": "FENGYUN 1C DEB", "OBJECT_ID": "1999-025DHF", "EPOCH": "2025-12-27T12:35:08.611008", "MEAN_MOTION": 14.08150725, "ECCENTRICITY": 0.0099106, "INCLINATION": 99.6588, "RA_OF_ASC_NODE": 89.1599, "ARG_OF_PERICENTER": 278.8783, "MEAN_ANOMALY": 80.1174, "EPHEMERIS_TYPE": 0, "CLASSIFICATION_TYPE": "U", "NORAD_CAT_ID": 33718, "ELEMENT_SET_NO": 999, "REV_AT_EPOCH": 69394, "BSTAR": 0.0018509, "MEAN_MOTION_DOT": 3.251e-05, "MEAN_MOTION_DDOT": 0}, "tle": {"line1": "1 33718U 99025DHF 25361.52440522  .00003251  00000+0  18509-2 0  9993", "line2": "2 33718  99.6588  89.1599 0099106 278.8783  80.1174 14.08150725693943"}}, "geometry": {"type": "Point", "coordinates": [-79.30235590999258, 48.38792284193459]}}, {"type": "Feature", "properties": {"norad_id": 33719, "name": "FENGYUN 1C DEB", "group": "fengyun-1c-debris", "lat": 53.263070515462886, "lon": -106.1513756901447, "alt_km": 807.8002345869709, "timestamp": "2025-12-27T23:26:37.649758+00:00", "meta": {"OBJECT_NAME": "FENGYUN 1C DEB", "OBJECT_ID": "1999-025DHG", "EPOCH": "2025-12-27T09:38:35.170080", "MEAN_MOTION": 14.23520667, "ECCENTRICITY": 0.0029676, "INCLINATION": 98.7753, "RA_OF_ASC_NODE": 61.3314, "ARG_OF_PERICENTER": 38.9187, "MEAN_ANOMALY": 21.3208, "EPHEMERIS_TYPE": 0, "CLASSIFICATION_TYPE": "U", "NORAD_CAT_ID": 33719, "ELEMENT_SET_NO": 999, "REV_AT_EPOCH": 92222, "BSTAR": 0.00067104, "MEAN_MOTION_DOT": 1.489e-05, "MEAN_MOTION_DDOT": 0}, "tle": {"line1": "1 33719U 99025DHG 25361.40179595  .00001489  00000+0  67104-3 0  9997", "line2": "2 33719  98.7753  61.3314 0029676  38.9187  21.3208 14.23520667922227"}}, "geometry": {"type": "Point", "coordinates": [-106.1513756901447, 53.263070515462886]}}, {"type": "Feature", "properties": {"norad_id": 33722, "name": "FENGYUN 1C DEB", "group": "fengyun-1c-debris", "lat": -81.39105066111729, "lon": 110.70088429446243, "alt_km": 772.744029105841, "timestamp": "2025-12-27T23:26:37.649767+00:00", "meta": {"OBJECT_NAME": "FENGYUN 1C DEB", "OBJECT_ID": "1999-025DHK", "EPOCH": "2025-12-27T06:58:44.498784", "MEAN_MOTION": 14.21400747, "ECCENTRICITY": 0.0158593, "INCLINATION": 98.5738, "RA_OF_ASC_NODE": 15.2331, "ARG_OF_PERICENTER": 209.3813, "MEAN_ANOMALY": 149.8378, "EPHEMERIS_TYPE": 0, "CLASSIFICATION_TYPE": "U", "NORAD_CAT_ID": 33722, "ELEMENT_SET_NO": 999, "REV_AT_EPOCH": 92354, "BSTAR": 0.00062022, "MEAN_MOTION_DOT": 1.495e-05, "MEAN_MOTION_DDOT": 0}, "tle": {"line1": "1 33722U 99025DHK 25361.29079281  .00001495  00000+0  62022-3 0  9990", "line2": "2 33722  98.5738  15.2331 0158593 209.3813 149.8378 14.21400747923544"}}, "geometry": {"type": "Point", "coordinates": [110.70088429446243, -81.39105066111729]}}, {"type": "Feature", "properties": {"norad_id": 33723, "name": "FENGYUN 1C DEB", "group": "fengyun-1c-debris", "lat": -65.23196250512531, "lon": 103.35440442570004, "alt_km": 784.0510723195621, "timestamp": "2025-12-27T23:26:37.649777+00:00", "meta": {"OBJECT_NAME": "FENGYUN 1C DEB", "OBJECT_ID": "1999-025DHL", "EPOCH": "2025-12-20T04:59:52.476864", "MEAN_MOTION": 14.13346573, "ECCENTRICITY": 0.00986593, "INCLINATION": 99.1535, "RA_OF_ASC_NODE": 74.9552, "ARG_OF_PERICENTER": 309.2442, "MEAN_ANOMALY": 78.1701, "EPHEMERIS_TYPE": 0, "CLASSIFICATION_TYPE": "U", "NORAD_CAT_ID": 33723, "ELEMENT_SET_NO": 999, "REV_AT_EPOCH": 63729, "BSTAR": 0.001358788, "MEAN_MOTION_DOT": 2.624e-05, "MEAN_MOTION_DDOT": 0}, "tle": {"line1": "1 33723U 99025DHL 25354.20824626  .00002624  00000+0  13588-2 0  9992", "line2": "2 33723  99.1535  74.9552 0098659 309.2442  78.1701 14.13346573637293"}}, "geometry": {"type": "Point", "coordinates": [103.35440442570004, -65.23196250512531]}}, {"type": "Feature", "properties": {"norad_id": 33724, "name": "FENGYUN 1C DEB", "group": "fengyun-1c-debris", "lat": 11.366108555751014, "lon": 10.108482187299103, "alt_km": 839.747860589584, "timestamp": "2025-12-27T23:26:37.649789+00:00", "meta": {"OBJECT_NAME": "FENGYUN 1C DEB", "OBJECT_ID": "1999-025DHM", "EPOCH": "2025-12-27T06:46:37.155072", "MEAN_MOTION": 14.19672935, "ECCENTRICITY": 0.0028016, "INCLINATION": 98.6034, "RA_OF_ASC_NODE": 11.1777, "ARG_OF_PERICENTER": 140.1042, "MEAN_ANOMALY": 284.5566, "EPHEMERIS_TYPE": 0, "CLASSIFICATION_TYPE": "U", "NORAD_CAT_ID": 33724, "ELEMENT_SET_NO": 999, "REV_AT_EPOCH": 94168, "BSTAR": 0.00047345, "MEAN_MOTION_DOT": 9.62e-06, "MEAN_MOTION_DDOT": 0}, "tle": {"line1": "1 33724U 99025DHM 25361.28237448  .00000962  00000+0  47345-3 0  9991", "line2": "2 33724  98.6034  11.1777 0028016 140.1042 284.5566 14.19672935941685"}}, "geometry": {"type": "Point", "coordinates": [10.108482187299103, 11.366108555751014]}}, {"type": "Feature", "properties": {"norad_id": 33726, "name": "FENGYUN 1C DEB", "group": "fengyun-1c-debris", "lat": 69.73236646884894, "lon": 101.38640286547627, "alt_km": 821.1211131608907, "timestamp": "2025-12-27T23:26:37.649799+00:00", "meta": {"OBJECT_NAME": "FENGYUN 1C DEB", "OBJECT_ID": "1999-025DHP", "EPOCH": "2025-12-27T03:35:01.718016", "MEAN_MOTION": 14.14324219, "ECCENTRICITY": 0.01920507, "INCLINATION": 98.6394, "RA_OF_ASC_NODE": 124.8985, "ARG_OF_PERICENTER": 349.8175, "MEAN_ANOMALY": 188.7264, "EPHEMERIS_TYPE": 0, "CLASSIFICATION_TYPE": "U", "NORAD_CAT_ID": 33726, "ELEMENT_SET_NO": 999, "REV_AT_EPOCH": 92135, "BSTAR": 0.00033974107, "MEAN_MOTION_DOT": 7.31e-06, "MEAN_MOTION_DDOT": 0}, "tle": {"line1": "1 33726U 99025DHP 25361.14932544  .00000731  00000+0  33974-3 0  9994", "line2": "2 33726  98.6394 124.8985 0192050 349.8175 188.7264 14.14324219921350"}}, "geometry": {"type": "Point", "coordinates": [101.38640286547627, 69.73236646884894]}}, {"type": "Feature", "properties": {"norad_id": 33728, "name": "FENGYUN 1C DEB", "group": "fengyun-1c-debris", "lat": -11.378906890044535, "lon": 61.81675353302488, "alt_km": 696.572864799029, "timestamp": "2025-12-27T23:26:37.649809+00:00", "meta": {"OBJECT_NAME": "FENGYUN 1C DEB", "OBJECT_ID": "1999-025DHR", "EPOCH": "2025-12-26T10:29:48.651360", "MEAN_MOTION": 14.92801375, "ECCENTRICITY": 0.0148096, "INCLINATION": 98.9769, "RA_OF_ASC_NODE": 58.2389, "ARG_OF_PERICENTER": 171.0065, "MEAN_ANOMALY": 189.3858, "EPHEMERIS_TYPE": 0, "CLASSIFICATION_TYPE": "U", "NORAD_CAT_ID": 33728, "ELEMENT_SET_NO": 999, "REV_AT_EPOCH": 98504, "BSTAR": 0.00054908, "MEAN_MOTION_DOT": 6.956e-05, "MEAN_MOTION_DDOT": 0}, "tle": {"line1": "1 33728U 99025DHR 25360.43736865  .00006956  00000+0  54908-3 0  9990", "line2": "2 33728  98.9769  58.2389 0148096 171.0065 189.3858 14.92801375985044"}}, "geometry": {"type": "Point", "coordinates": [61.81675353302488, -11.378906890044535]}}, {"type": "Feature", "properties": {"norad_id": 33730, "name": "FENGYUN 1C DEB", "group": "fengyun-1c-debris", "lat": 73.76012331838308, "lon": -85.59225717194383, "alt_km": 695.2461891024523, "timestamp": "2025-12-27T23:26:37.649819+00:00", "meta": {"OBJECT_NAME": "FENGYUN 1C DEB", "OBJECT_ID": "1999-025DHT", "EPOCH": "2025-12-17T10:18:00.572256", "MEAN_MOTION": 14.63540792, "ECCENTRICITY": 0.00393712, "INCLINATION": 99.0546, "RA_OF_ASC_NODE": 49.6389, "ARG_OF_PERICENTER": 356.5197, "MEAN_ANOMALY": 3.5723, "EPHEMERIS_TYPE": 0, "CLASSIFICATION_TYPE": "U", "NORAD_CAT_ID": 33730, "ELEMENT_SET_NO": 999, "REV_AT_EPOCH": 95748, "BSTAR": 0.0011805307, "MEAN_MOTION_DOT": 6.139e-05, "MEAN_MOTION_DDOT": 0}, "tle": {"line1": "1 33730U 99025DHT 25351.42917329  .00006139  00000+0  11805-2 0  9999", "line2": "2 33730  99.0546  49.6389 0039371 356.5197   3.5723 14.63540792957483"}}, "geometry": {"type": "Point", "coordinates": [-85.59225717194383, 73.76012331838308]}}]}